[{"OBJECT_NAME":"SHIYAN-23 (SY-23)","OBJECT_ID":"2024-089A","EPOCH":"2026-03-09T17:48:57.331872","MEAN_MOTION":14.86904923,"ECCENTRICITY":0.0004099,"INCLINATION":97.778,"RA_OF_ASC_NODE":72.5746,"ARG_OF_PERICENTER":142.8703,"MEAN_ANOMALY":217.2797,"EPHEMERIS_TYPE":0,"CLASSIFICATION_TYPE":"U","NORAD_CAT_ID":59728,"ELEMENT_SET_NO":999,"REV_AT_EPOCH":9906,"BSTAR":9.2631e-5,"MEAN_MOTION_DOT":7.74e-6,"MEAN_MOTION_DDOT":0},{"OBJECT_NAME":"PSLV DEB","OBJECT_ID":"2001-049PE","EPOCH":"2026-03-06T08:31:37.255584","MEAN_MOTION":14.77478987,"ECCENTRICITY":0.00401283,"INCLINATION":98.2634,"RA_OF_ASC_NODE":105.2983,"ARG_OF_PERICENTER":304.6504,"MEAN_ANOMALY":119.4305,"EPHEMERIS_TYPE":0,"CLASSIFICATION_TYPE":"U","NORAD_CAT_ID":28852,"ELEMENT_SET_NO":999,"REV_AT_EPOCH":68357,"BSTAR":0.00015386859,"MEAN_MOTION_DOT":1.054e-5,"MEAN_MOTION_DDOT":0}]
